GECAM-B                 
1 47235U 20094B   26058.19405615  .00003224  00000+0  23073-3 0  9996
2 47235  28.9982  10.8844 0010635 257.2071 102.7339 15.01652363285175
STARLINK-34705          
1 64932U 25158A   26068.62949679  .00003556  00000+0  25057-3 0  9999
2 64932  97.6031 293.9692 0002170  66.8900 293.2555 15.05649645 35342
